NORAD_CAT_ID,OBJECT_NAME,OBJECT_TYPE,EPOCH,MEAN_MOTION,ECCENTRICITY,INCLINATION,RA_OF_ASC_NODE,ARG_OF_PERICENTER,MEAN_ANOMALY,BSTAR,MEAN_MOTION_DOT,MEAN_MOTION_DDOT,TLE_LINE0,TLE_LINE1,TLE_LINE2,SEMIMAJOR_AXIS,PERIOD,APOGEE,PERIGEE,DECAYED
50806.0,STARLINK-3335,PAYLOAD,2022-11-29 20:23:20,15.08856929,0.0002544,53.2172,127.443,54.7128,305.4102,0.00021837,3.19e-05,0.0,0 STARLINK-3335,1 50806U 22001D   22333.84954137  .00003190  00000-0  21837-3 0  9995,2 50806  53.2172 127.4430 0002544  54.7128 305.4102 15.08856929 50018,6917.829000000002,95.436,541.4540000000002,537.934,0.0
50806.0,STARLINK-3335,PAYLOAD,2022-11-30 09:06:25,15.08848607,0.000248,53.2178,125.0653,53.6818,306.4403,5.5115e-05,5.89e-06,0.0,0 STARLINK-3335,1 50806U 22001D   22334.37946185  .00000589  00000-0  55115-4 0  9994,2 50806  53.2178 125.0653 0002480  53.6818 306.4403 15.08848607 51366,6917.854,95.437,541.435,538.003,0.0
50806.0,STARLINK-3335,PAYLOAD,2022-11-30 17:03:20,15.08848864,0.0002501,53.2187,123.5785,55.244,304.8787,7.5732e-05,9.17e-06,0.0,0 STARLINK-3335,1 50806U 22001D   22334.71065924  .00000917  00000-0  75732-4 0  9997,2 50806  53.2187 123.5785 0002501  55.2440 304.8787 15.08848864 50145,6917.853,95.437,541.448,537.988,0.0
50806.0,STARLINK-3335,PAYLOAD,2022-12-01 02:35:40,15.08840841,0.0002444,53.2186,121.7944,53.7402,306.3816,-3.6051e-05,-8.62e-06,0.0,0 STARLINK-3335,1 50806U 22001D   22335.10810769 -.00000862  00000-0 -36051-4 0  9998,2 50806  53.2186 121.7944 0002444  53.7402 306.3816 15.08840841 51472,6917.878000000002,95.438,541.434,538.052,0.0
50806.0,STARLINK-3335,PAYLOAD,2022-12-01 12:07:58,15.0884397,0.000244,53.2173,120.0091,51.8308,308.2904,-5.0955e-05,-1.099e-05,0.0,0 STARLINK-3335,1 50806U 22001D   22335.50554009 -.00001099  00000-0 -50955-4 0  9996,2 50806  53.2173 120.0091 0002440  51.8308 308.2904 15.08843970 50264,6917.868,95.437,541.4209999999998,538.045,0.0
50806.0,STARLINK-3335,PAYLOAD,2022-12-01 18:29:30,15.08847685,0.0002483,53.2173,118.8199,53.7754,306.3468,2.0071e-05,3.1e-07,0.0,0 STARLINK-3335,1 50806U 22001D   22335.77049743  .00000031  00000-0  20071-4 0  9998,2 50806  53.2173 118.8199 0002483  53.7754 306.3468 15.08847685 51577,6917.857,95.437,541.44,538.004,0.0
50806.0,STARLINK-3335,PAYLOAD,2022-12-02 02:26:27,15.08834838,0.0002503,53.2158,117.3323,53.37300000000001,306.7492,-4.6059e-05,-1.021e-05,0.0,0 STARLINK-3335,1 50806U 22001D   22336.10170460 -.00001021  00000-0 -46059-4 0  9993,2 50806  53.2158 117.3323 0002503  53.3730 306.7492 15.08834838 51629,6917.896,95.438,541.493,538.03,0.0
50806.0,STARLINK-3335,PAYLOAD,2022-12-02 10:23:23,15.08834929,0.0002466,53.2173,115.8457,52.18899999999999,307.9325,-6.95e-05,-1.394e-05,0.0,0 STARLINK-3335,1 50806U 22001D   22336.43290520 -.00001394  00000-0 -69500-4 0  9998,2 50806  53.2173 115.8457 0002466  52.1890 307.9325 15.08834929 50403,6917.896,95.438,541.467,538.055,0.0
50806.0,STARLINK-3335,PAYLOAD,2022-12-03 13:24:56,15.08834432,0.0002618,53.2186,110.7917,56.3483,303.7758,1.672e-05,-2.2e-07,0.0,0 STARLINK-3335,1 50806U 22001D   22337.55898876 -.00000022  00000-0  16720-4 0  9992,2 50806  53.2186 110.7917 0002618  56.3483 303.7758 15.08834432 51847,6917.897,95.438,541.5740000000002,537.951,0.0
50806.0,STARLINK-3335,PAYLOAD,2022-12-03 18:11:05,15.08836091,0.0002325,53.2174,109.8986,51.7193,308.4008,1.4732e-05,-5.4e-07,0.0,0 STARLINK-3335,1 50806U 22001D   22337.75770722 -.00000054  00000-0  14732-4 0  9999,2 50806  53.2174 109.8986 0002325  51.7193 308.4008 15.08836091 50607,6917.892,95.438,541.366,538.149,0.0
50806.0,STARLINK-3335,PAYLOAD,2022-12-04 14:51:06,15.088475099999998,0.0002329,53.2171,106.0331,50.7404,309.3794,0.00026169,3.88e-05,0.0,0 STARLINK-3335,1 50806U 22001D   22338.61882359  .00003880  00000-0  26169-3 0  9990,2 50806  53.2171 106.0331 0002329  50.7404 309.3794 15.08847510 50739,6917.857,95.437,541.3340000000002,538.111,0.0
50806.0,STARLINK-3335,PAYLOAD,2022-12-04 16:26:29,15.0884777,0.0002346,53.2171,105.7368,41.8579,318.2592,0.00023923,3.522e-05,0.0,0 STARLINK-3335,1 50806U 22001D   22338.68506424  .00003522  00000-0  23923-3 0  9991,2 50806  53.2171 105.7368 0002346  41.8579 318.2592 15.08847770 52014,6917.857,95.437,541.345,538.099,0.0
50806.0,STARLINK-3335,PAYLOAD,2022-12-04 19:37:16,15.08838848,0.0002317,53.2177,105.1415,50.028,310.0915,8.6792e-05,1.093e-05,0.0,0 STARLINK-3335,1 50806U 22001D   22338.81754804  .00001093  00000-0  86792-4 0  9998,2 50806  53.2177 105.1415 0002317  50.0280 310.0915 15.08838848 50761,6917.884,95.438,541.352,538.146,0.0
50806.0,STARLINK-3335,PAYLOAD,2022-12-04 21:12:39,15.08841241,0.0002237,53.2178,104.844,50.4204,309.6985,8.3075e-05,1.034e-05,0.0,0 STARLINK-3335,1 50806U 22001D   22338.88378706  .00001034  00000-0  83075-4 0  9994,2 50806  53.2178 104.8440 0002237  50.4204 309.6985 15.08841241 52042,6917.877,95.437,541.289,538.194,0.0
50806.0,STARLINK-3335,PAYLOAD,2022-12-05 19:28:02,15.0885012,0.0002409,53.2172,100.681,47.4029,312.7166,0.00023308,3.424e-05,0.0,0 STARLINK-3335,1 50806U 22001D   22339.81114132  .00003424  00000-0  23308-3 0  9996,2 50806  53.2172 100.6810 0002409  47.4029 312.7166 15.08850120 50919,6917.849,95.437,541.381,538.048,0.0
50806.0,STARLINK-3335,PAYLOAD,2022-12-06 01:49:34,15.08854554,0.0002422,53.2172,99.492,45.6566,314.4624,0.00035942,5.439e-05,0.0,0 STARLINK-3335,1 50806U 22001D   22340.07609941  .00005439  00000-0  35942-3 0  9998,2 50806  53.2172  99.4920 0002422  45.6566 314.4624 15.08854554 52226,6917.8359999999975,95.437,541.376,538.025,0.0
50806.0,STARLINK-3335,PAYLOAD,2022-12-06 12:57:16,15.08842642,0.0002207,53.2174,97.4098,49.452,310.6664,-1.5938e-05,-5.42e-06,0.0,0 STARLINK-3335,1 50806U 22001D   22340.53977975 -.00000542  00000-0 -15938-4 0  9990,2 50806  53.2174  97.4098 0002207  49.4520 310.6664 15.08842642 51029,6917.871999999999,95.437,541.264,538.211,0.0
50806.0,STARLINK-3335,PAYLOAD,2022-12-06 14:32:40,15.08841272,0.0002389,53.2178,97.1139,46.6294,313.4897,-1.4027e-05,-5.12e-06,0.0,0 STARLINK-3335,1 50806U 22001D   22340.60602219 -.00000512  00000-0 -14027-4 0  9999,2 50806  53.2178  97.1139 0002389  46.6294 313.4897 15.08841272 52303,6917.877,95.437,541.394,538.089,0.0
50806.0,STARLINK-3335,PAYLOAD,2022-12-06 19:18:50,15.08832634,0.0002252,53.2181,96.2213,47.0858,313.0323,-0.00015201,-2.706e-05,0.0,0 STARLINK-3335,1 50806U 22001D   22340.80474715 -.00002706  00000-0 -15201-3 0  9990,2 50806  53.2181  96.2213 0002252  47.0858 313.0323 15.08832634 51064,6917.903,95.438,541.326,538.21,0.0
50806.0,STARLINK-3335,PAYLOAD,2022-12-07 14:23:27,15.08837098,0.0002265,53.2183,92.6528,46.6245,313.4936,-0.00012646,-2.3e-05,0.0,0 STARLINK-3335,1 50806U 22001D   22341.59962817 -.00002300  00000-0 -12646-3 0  9992,2 50806  53.2183  92.6528 0002265  46.6245 313.4936 15.08837098 51180,6917.889,95.438,541.321,538.187,0.0
50806.0,STARLINK-3335,PAYLOAD,2022-12-08 07:52:42,15.08844379,0.0002182,53.2185,89.3825,42.0212,318.0947,0.00016479,2.336e-05,0.0,0 STARLINK-3335,1 50806U 22001D   22342.32826611  .00002336  00000-0  16479-3 0  9990,2 50806  53.2185  89.3825 0002182  42.0212 318.0947 15.08844379 51292,6917.8669999999975,95.437,541.241,538.2230000000002,0.0
50806.0,STARLINK-3335,PAYLOAD,2022-12-08 14:14:14,15.08854281,0.0002111,53.2185,88.1926,32.6116,327.5006,0.00036715,5.562e-05,0.0,0 STARLINK-3335,1 50806U 22001D   22342.59322128  .00005562  00000-0  36715-3 0  9992,2 50806  53.2185  88.1926 0002111  32.6116 327.5006 15.08854281 52601,6917.837,95.437,541.1619999999998,538.241,0.0
50806.0,STARLINK-3335,PAYLOAD,2022-12-09 07:43:28,15.08855695,0.0002037,53.2202,84.926,50.1089,310.0082,0.00030574,4.583e-05,0.0,0 STARLINK-3335,1 50806U 22001D   22343.32185433  .00004583  00000-0  30574-3 0  9999,2 50806  53.2202  84.9260 0002037  50.1089 310.0082 15.08855695 51449,6917.831999999999,95.437,541.107,538.288,0.0
50806.0,STARLINK-3335,PAYLOAD,2022-12-09 17:15:48,15.08823415,0.0002118,53.2194,83.1402,35.6764,324.437,-0.00010744,-1.997e-05,0.0,0 STARLINK-3335,1 50806U 22001D   22343.71931180 -.00001997  00000-0 -10744-3 0  9995,2 50806  53.2194  83.1402 0002118  35.6764 324.4370 15.08823415 52777,6917.931,95.439,541.261,538.331,0.0
50806.0,STARLINK-3335,PAYLOAD,2022-12-10 13:55:49,15.0882342,0.0002122,53.2183,79.2724,33.4759,326.6367,-0.00026885,-4.563e-05,0.0,0 STARLINK-3335,1 50806U 22001D   22344.58043893 -.00004563  00000-0 -26885-3 0  9991,2 50806  53.2183  79.2724 0002122  33.4759 326.6367 15.08823420 51633,6917.931,95.439,541.264,538.328,0.0
50806.0,STARLINK-3335,PAYLOAD,2022-12-10 18:41:59,15.08827773,0.0002034,53.2182,78.3803,33.2379,326.8741,-0.00016206,-2.866e-05,0.0,0 STARLINK-3335,1 50806U 22001D   22344.77915870 -.00002866  00000-0 -16206-3 0  9995,2 50806  53.2182  78.3803 0002034  33.2379 326.8741 15.08827773 52935,6917.918000000002,95.438,541.19,538.376,0.0
50806.0,STARLINK-3335,PAYLOAD,2022-12-11 12:11:14,15.08837975,0.0002292,53.2178,75.1099,40.4848,319.6315,0.00099879,0.00015643,0.0,0 STARLINK-3335,1 50806U 22001D   22345.50780880  .00015643  00000-0  99879-3 0  9990,2 50806  53.2178  75.1099 0002292  40.4848 319.6315 15.08837975 51772,6917.887,95.438,541.337,538.1659999999998,0.0
50806.0,STARLINK-3335,PAYLOAD,2022-12-11 13:46:37,15.08848003,0.0002261,53.2177,74.8126,36.979,323.1358,0.00096636,0.00015129,0.0,0 STARLINK-3335,1 50806U 22001D   22345.57404572  .00015129  00000-0  96636-3 0  9995,2 50806  53.2177  74.8126 0002261  36.9790 323.1358 15.08848003 53054,6917.856,95.437,541.285,538.1569999999998,0.0
50806.0,STARLINK-3335,PAYLOAD,2022-12-11 18:32:46,15.08861734,0.0002311,53.2175,73.9206,37.4292,322.686,0.0012372,0.00019469,0.0,0 STARLINK-3335,1 50806U 22001D   22345.77276312  .00019469  00000-0  12372-2 0  9991,2 50806  53.2175  73.9206 0002311  37.4292 322.6860 15.08861734 51810,6917.814,95.436,541.278,538.08,0.0
